NORAD_CAT_ID,OBJECT_NAME,OBJECT_TYPE,EPOCH,MEAN_MOTION,ECCENTRICITY,INCLINATION,RA_OF_ASC_NODE,ARG_OF_PERICENTER,MEAN_ANOMALY,BSTAR,MEAN_MOTION_DOT,MEAN_MOTION_DDOT,TLE_LINE0,TLE_LINE1,TLE_LINE2,SEMIMAJOR_AXIS,PERIOD,APOGEE,PERIGEE,DECAYED
50197.0,STARLINK-3267,PAYLOAD,2024-06-13 09:03:51,15.08832515,0.000127,53.2163,206.662,80.8499,279.2637,0.00023651,3.477e-05,0.0,0 STARLINK-3267,1 50197U 21125AT  24165.37768459  .00003477  00000-0  23651-3 0  9991,2 50197  53.2163 206.6620 0001270  80.8499 279.2637 15.08832515141026,6917.903,95.438,540.647,538.89,0.0
50197.0,STARLINK-3267,PAYLOAD,2024-06-14 12:05:24,15.08841162,0.0001276,53.2169,201.6061,84.0403,276.0735,7.8764e-05,9.66e-06,0.0,0 STARLINK-3267,1 50197U 21125AT  24166.50376133  .00000966  00000-0  78764-4 0  9997,2 50197  53.2169 201.6061 0001276  84.0403 276.0735 15.08841162141193,6917.877,95.437,540.625,538.859,0.0
50197.0,STARLINK-3267,PAYLOAD,2024-06-15 11:56:11,15.08843961,0.0001295,53.2168,197.1448,86.3484,273.7656,1.5639e-05,-3.9e-07,0.0,0 STARLINK-3267,1 50197U 21125AT  24167.49736007 -.00000039  00000-0  15639-4 0  9990,2 50197  53.2168 197.1448 0001295  86.3484 273.7656 15.08843961140818,6917.868,95.437,540.629,538.837,0.0
50197.0,STARLINK-3267,PAYLOAD,2024-06-16 11:46:58,15.08841948,0.0001248,53.2162,192.6845,83.6784,276.435,2.9894e-05,1.88e-06,0.0,0 STARLINK-3267,1 50197U 21125AT  24168.49095966  .00000188  00000-0  29894-4 0  9995,2 50197  53.2162 192.6845 0001248  83.6784 276.4350 15.08841948141493,6917.874,95.437,540.603,538.876,0.0
50197.0,STARLINK-3267,PAYLOAD,2024-06-17 17:59:19,15.08836682,0.000122,53.2159,187.0345,80.8319,279.2811,3.7504e-06,-2.28e-06,0.0,0 STARLINK-3267,1 50197U 21125AT  24169.74952548 -.00000228  00000-0  37504-5 0  9996,2 50197  53.2159 187.0345 0001220  80.8319 279.2811 15.08836682141688,6917.891,95.438,540.6,538.912,0.0
50197.0,STARLINK-3267,PAYLOAD,2024-06-18 08:17:47,15.08837025,0.0001225,53.2157,184.358,80.3726,279.7404,1.3678e-05,-7e-07,0.0,0 STARLINK-3267,1 50197U 21125AT  24170.34568602 -.00000070  00000-0  13678-4 0  9998,2 50197  53.2157 184.3580 0001225  80.3726 279.7404 15.08837025141246,6917.889,95.438,540.602,538.907,0.0
50197.0,STARLINK-3267,PAYLOAD,2024-06-18 17:50:06,15.08828787,0.0001178,53.2152,182.5741,82.3726,277.7399,-3.5719e-05,-8.56e-06,0.0,0 STARLINK-3267,1 50197U 21125AT  24170.74313423 -.00000856  00000-0 -35719-4 0  9994,2 50197  53.2152 182.5741 0001178  82.3726 277.7399 15.08828787141302,6917.915,95.438,540.595,538.965,0.0
50197.0,STARLINK-3267,PAYLOAD,2024-06-19 09:43:58,15.08828988,0.000119,53.2155,179.601,89.2323,270.8806,-1.3794e-05,-5.07e-06,0.0,0 STARLINK-3267,1 50197U 21125AT  24171.40553806 -.00000507  00000-0 -13794-4 0  9991,2 50197  53.2155 179.6010 0001190  89.2323 270.8806 15.08828988141933,6917.914,95.438,540.602,538.956,0.0
50197.0,STARLINK-3267,PAYLOAD,2024-06-19 17:40:54,15.08830416,0.0001193,53.2156,178.1142,89.1818,270.9311,3.4317e-06,-2.33e-06,0.0,0 STARLINK-3267,1 50197U 21125AT  24171.73673858 -.00000233  00000-0  34317-5 0  9997,2 50197  53.2156 178.1142 0001193  89.1818 270.9311 15.08830416141981,6917.91,95.438,540.6,538.949,0.0
50197.0,STARLINK-3267,PAYLOAD,2024-06-20 04:48:36,15.08832687,0.0001188,53.2154,176.0322,89.7981,270.3148,6.0505e-06,-1.92e-06,0.0,0 STARLINK-3267,1 50197U 21125AT  24172.20041930 -.00000192  00000-0  60505-5 0  9992,2 50197  53.2154 176.0322 0001188  89.7981 270.3148 15.08832687141521,6917.903,95.438,540.59,538.946,0.0
50197.0,STARLINK-3267,PAYLOAD,2024-06-20 07:59:22,15.08833191,0.0001258,53.2158,175.4379,88.4187,271.6949,2.1144e-05,4.9e-07,0.0,0 STARLINK-3267,1 50197U 21125AT  24172.33289938  .00000049  00000-0  21144-4 0  9993,2 50197  53.2158 175.4379 0001258  88.4187 271.6949 15.08833191142077,6917.901,95.438,540.636,538.896,0.0
50197.0,STARLINK-3267,PAYLOAD,2024-06-21 06:14:46,15.08836851,0.0001282,53.2162,171.2745,88.6978,271.4161,9.1465e-05,1.168e-05,0.0,0 STARLINK-3267,1 50197U 21125AT  24173.26025859  .00001168  00000-0  91465-4 0  9992,2 50197  53.2162 171.2745 0001282  88.6978 271.4161 15.08836851141686,6917.89,95.438,540.642,538.868,0.0
50197.0,STARLINK-3267,PAYLOAD,2024-06-22 04:30:09,15.08844928,0.0001291,53.2164,167.1115,88.2161,271.8979,0.0001054,1.39e-05,0.0,0 STARLINK-3267,1 50197U 21125AT  24174.18761240  .00001390  00000-0  10540-3 0  9996,2 50197  53.2164 167.1115 0001291  88.2161 271.8979 15.08844928141824,6917.865,95.437,540.623,538.837,0.0
50197.0,STARLINK-3267,PAYLOAD,2024-06-22 09:16:18,15.08847268,0.0001301,53.2164,166.219,89.5881,270.526,0.00010351,1.36e-05,0.0,0 STARLINK-3267,1 50197U 21125AT  24174.38633018  .00001360  00000-0  10351-3 0  9996,2 50197  53.2164 166.2190 0001301  89.5881 270.5260 15.08847268142383,6917.858,95.437,540.623,538.823,0.0
50197.0,STARLINK-3267,PAYLOAD,2024-06-23 09:07:06,15.08845343,0.0001413,53.217,161.7576,98.1233,261.992,6.3081e-06,-1.88e-06,0.0,0 STARLINK-3267,1 50197U 21125AT  24175.37993059 -.00000188  00000-0  63081-5 0  9998,2 50197  53.2170 161.7576 0001413  98.1233 261.9920 15.08845343142007,6917.864,95.437,540.707,538.752,0.0
50197.0,STARLINK-3267,PAYLOAD,2024-06-24 05:47:06,15.08844449,0.0001435,53.217,157.8915,99.2596,260.8559,-1.342e-05,-5.02e-06,0.0,0 STARLINK-3267,1 50197U 21125AT  24176.24104865 -.00000502  00000-0 -13420-4 0  9996,2 50197  53.2170 157.8915 0001435  99.2596 260.8559 15.08844449142662,6917.867,95.437,540.725,538.739,0.0
50197.0,STARLINK-3267,PAYLOAD,2024-06-25 04:02:31,15.08834373,0.0001477,53.2171,153.7288,100.5529,259.5629,-2.7729e-05,-7.29e-06,0.0,0 STARLINK-3267,1 50197U 21125AT  24177.16841532 -.00000729  00000-0 -27729-4 0  9995,2 50197  53.2171 153.7288 0001477 100.5529 259.5629 15.08834373142274,6917.898,95.438,540.784,538.741,0.0
50197.0,STARLINK-3267,PAYLOAD,2024-06-26 03:53:17,15.08838513,0.000167,53.2179,149.2727,114.2587,245.858,4.4523e-05,4.21e-06,0.0,0 STARLINK-3267,1 50197U 21125AT  24178.16201150  .00000421  00000-0  44523-4 0  9990,2 50197  53.2179 149.2727 0001670 114.2587 245.8580 15.08838513142422,6917.885,95.438,540.905,538.595,0.0
50197.0,STARLINK-3267,PAYLOAD,2024-06-26 05:28:40,15.08842171,0.000144,53.2171,148.9679,87.423,272.6927,6.7529e-05,7.87e-06,0.0,0 STARLINK-3267,1 50197U 21125AT  24178.22824922  .00000787  00000-0  67529-4 0  9991,2 50197  53.2171 148.9679 0001440  87.4230 272.6927 15.08842171142964,6917.874,95.437,540.735,538.743,0.0
50197.0,STARLINK-3267,PAYLOAD,2024-06-27 03:44:05,15.08818677,0.0001774,53.2172,144.8051,56.6744,303.4418,0.00022559,3.302e-05,0.0,0 STARLINK-3267,1 50197U 21125AT  24179.15562171  .00003302  00000-0  22559-3 0  9998,2 50197  53.2172 144.8051 0001774  56.6744 303.4418 15.08818677142571,6917.946,95.439,541.038,538.583,0.0
50197.0,STARLINK-3267,PAYLOAD,2024-06-27 14:51:47,15.08822211,0.0001417,53.2165,142.7295,84.9632,275.1522,0.00019107,2.753e-05,0.0,0 STARLINK-3267,1 50197U 21125AT  24179.61930387  .00002753  00000-0  19107-3 0  9991,2 50197  53.2165 142.7295 0001417  84.9632 275.1522 15.08822211143171,6917.935,95.439,540.78,538.819,0.0
50197.0,STARLINK-3267,PAYLOAD,2024-06-28 05:10:15,15.08844286,0.0001276,53.2154,140.0505,105.1687,254.9446,-1.414e-05,-5.13e-06,0.0,0 STARLINK-3267,1 50197U 21125AT  24180.21545487 -.00000513  00000-0 -14140-4 0  9999,2 50197  53.2154 140.0505 0001276 105.1687 254.9446 15.08844286142730,6917.867,95.437,540.615,538.85,0.0
50197.0,STARLINK-3267,PAYLOAD,2024-06-28 14:42:33,15.08845863,0.0001386,53.2159,138.2688,90.7419,269.3732,0.00010808,1.433e-05,0.0,0 STARLINK-3267,1 50197U 21125AT  24180.61289109  .00001433  00000-0  10808-3 0  9995,2 50197  53.2159 138.2688 0001386  90.7419 269.3732 15.08845863143326,6917.862,95.437,540.686,538.769,0.0
50197.0,STARLINK-3267,PAYLOAD,2024-06-29 03:25:38,15.0885162,0.0001213,53.2155,135.8873,96.4487,263.6643,0.00015392,2.163e-05,0.0,0 STARLINK-3267,1 50197U 21125AT  24181.14280265  .00002163  00000-0  15392-3 0  9992,2 50197  53.2155 135.8873 0001213  96.4487 263.6643 15.08851620142873,6917.845,95.437,540.549,538.871,0.0
50197.0,STARLINK-3267,PAYLOAD,2024-06-29 14:33:20,15.08839521,0.0001348,53.2154,133.8042,95.5963,264.5183,5.2077e-05,5.41e-06,0.0,0 STARLINK-3267,1 50197U 21125AT  24181.60649285  .00000541  00000-0  52077-4 0  9994,2 50197  53.2154 133.8042 0001348  95.5963 264.5183 15.08839521143478,6917.882,95.438,540.679,538.814,0.0
50197.0,STARLINK-3267,PAYLOAD,2024-06-29 20:54:55,15.08823263,0.0001942,53.2161,132.6187,79.7992,280.3219,-5.6484e-05,-1.187e-05,0.0,0 STARLINK-3267,1 50197U 21125AT  24181.87147068 -.00001187  00000-0 -56484-4 0  9990,2 50197  53.2161 132.6187 0001942  79.7992 280.3219 15.08823263143516,6917.932,95.439,541.14,538.453,0.0
50197.0,STARLINK-3267,PAYLOAD,2024-06-30 03:16:27,15.088223,0.0001492,53.2151,131.4273,89.6811,270.4352,-6.0375e-05,-1.248e-05,0.0,0 STARLINK-3267,1 50197U 21125AT  24182.13643189 -.00001248  00000-0 -60375-4 0  9997,2 50197  53.2151 131.4273 0001492  89.6811 270.4352 15.08822300143023,6917.934,95.439,540.832,538.767,0.0
50197.0,STARLINK-3267,PAYLOAD,2024-07-01 03:07:12,15.08849341,0.0001169,53.2156,126.9681,83.4474,276.6651,3.4329e-05,2.59e-06,0.0,0 STARLINK-3267,1 50197U 21125AT  24183.13001138  .00000259  00000-0  34329-4 0  9999,2 50197  53.2156 126.9681 0001169  83.4474 276.6651 15.08849341143178,6917.852,95.437,540.526,538.908,0.0
50197.0,STARLINK-3267,PAYLOAD,2024-07-01 06:17:58,15.08865362,0.0001519,53.2171,126.3732,89.7805,270.3362,6.2005e-05,7e-06,0.0,0 STARLINK-3267,1 50197U 21125AT  24183.26248071  .00000700  00000-0  62005-4 0  9995,2 50197  53.2171 126.3732 0001519  89.7805 270.3362 15.08865362143195,6917.803,95.436,540.719,538.617,0.0
50197.0,STARLINK-3267,PAYLOAD,2024-07-01 20:36:29,15.08820778,0.0001339,53.2178,123.6975,89.3057,270.8089,0.00018567,2.667e-05,0.0,0 STARLINK-3267,1 50197U 21125AT  24183.85866998  .00002667  00000-0  18567-3 0  9991,2 50197  53.2178 123.6975 0001339  89.3057 270.8089 15.08820778143289,6917.939,95.439,540.73,538.878,0.0
